GSAT0215 (GALILEO 19)   
1 43055U 17079A   26169.77531633  .00000028  00000+0  00000+0 0  9998
2 43055  55.0730 221.4630 0003228 264.0800  95.9660  1.70474593 53016
GSAT0216 (GALILEO 20)   
1 43056U 17079B   26168.89331476  .00000034  00000+0  00000+0 0  9991
2 43056  55.0732 221.4873 0004317 276.2784  83.7610  1.70474666 53015
GSAT0217 (GALILEO 21)   
1 43057U 17079C   26167.35438370  .00000047  00000+0  00000+0 0  9997
2 43057  55.0717 221.5274 0004985 283.8791  76.1632  1.70474228 52976
GSAT0218 (GALILEO 22)   
1 43058U 17079D   26170.50733131  .00000026  00000+0  00000+0 0  9999
2 43058  55.0708 221.4378 0004305 273.7481  86.2815  1.70474769 53056
BEIDOU-3 M7             
1 43107U 18003A   26171.03534061 -.00000089  00000+0  00000+0 0  9992
2 43107  54.3254 302.2159 0004851  94.5867 265.4639  1.86227890 57403
BEIDOU-3 M8             
1 43108U 18003B   26170.44311341 -.00000085  00000+0  00000+0 0  9997
2 43108  54.3186 302.2181 0002536 260.6635  99.3026  1.86230746 57408
BEIDOU-3 M4             
1 43207U 18018A   26170.88611372 -.00000067  00000+0  00000+0 0  9998
2 43207  56.6538  63.0589 0007703  18.9715 341.0976  1.86231045 56797
BEIDOU-3 M3             
1 43208U 18018B   26169.34173260 -.00000056  00000+0  00000+0 0  9995
2 43208  56.6516  63.1145 0008713 341.3004  18.7097  1.86230730 56768
BEIDOU-3 M9             
1 43245U 18029A   26171.17043730 -.00000089  00000+0  00000+0 0  9996
2 43245  54.1908 299.8436 0000998 153.7677 206.2347  1.86227999 55951
BEIDOU-3 M10            
1 43246U 18029B   26170.03086451 -.00000080  00000+0  00000+0 0  9999
2 43246  54.1899 299.9108 0003781  40.0504 319.9737  1.86229038 55915
IRNSS-1I                
1 43286U 18035A   26166.83981681  .00000062  00000+0  00000+0 0  9991
2 43286  28.7520  74.2167 0017811 181.5598   5.5147  1.00272046 30064
COSMOS 2527 [GLONASS-M] 
1 43508U 18053A   26170.90026155 -.00000034  00000+0  00000+0 0  9997
2 43508  65.5791  73.8170 0006906 238.7549 121.2143  2.13102048 62339
BEIDOU-2 IGSO-7         
1 43539U 18057A   26170.91426345 -.00000031  00000+0  00000+0 0  9998
2 43539  55.1954 163.0329 0105088 238.0240 305.9372  1.00250534 29156
GSAT0221 (GALILEO 25)   
1 43564U 18060A   26168.65155293 -.00000090  00000+0  00000+0 0  9994
2 43564  57.1692 341.7677 0002595 303.5364  56.4325  1.70475954 49172
GSAT0222 (GALILEO 26)   
1 43565U 18060B   26170.04438053 -.00000093  00000+0  00000+0 0  9992
2 43565  57.1718 341.7337 0001999 248.0862 111.8861  1.70475706 49242
GSAT0219 (GALILEO 23)   
1 43566U 18060C   26170.85185509 -.00000095  00000+0  00000+0 0  9999
2 43566  57.1714 341.7134 0001936 321.4616  38.5188  1.70475963 49239
GSAT0220 (GALILEO 24)   
1 43567U 18060D   26170.48626588 -.00000094  00000+0  00000+0 0  9995
2 43567  57.1712 341.7225 0002111 313.2574  46.7188  1.70475760 49211
BEIDOU-3 M5             
1 43581U 18062A   26169.71794442  .00000056  00000+0  00000+0 0  9999
2 43581  54.0850 182.2515 0005660 289.9886  69.9738  1.86228577 53664
BEIDOU-3 M6             
1 43582U 18062B   26170.65533791  .00000061  00000+0  00000+0 0  9999
2 43582  54.0852 182.2089 0004971   8.2110 351.8190  1.86227827 53683
BEIDOU-3 M12            
1 43602U 18067A   26169.51983166  .00000056  00000+0  00000+0 0  9999
2 43602  54.1807 180.9950 0007814  29.6797 330.3861  1.86227728 53144
BEIDOU-3 M11            
1 43603U 18067B   26170.72881881  .00000063  00000+0  00000+0 0  9994
2 43603  54.1779 180.9175 0004516  12.6622 347.3686  1.86227142 53195
BEIDOU-3 M13            
1 43622U 18072A   26170.14673130 -.00000062  00000+0  00000+0 0  9993
2 43622  56.6261  62.5952 0007172 330.4158  29.5857  1.86231019 52694
BEIDOU-3 M14            
1 43623U 18072B   26167.86433090 -.00000051  00000+0  00000+0 0  9996
2 43623  56.6260  62.6651 0006189 359.6599   0.3805  1.86231280 52645
BEIDOU-3 M16            
1 43647U 18078A   26170.70439581 -.00000086  00000+0  00000+0 0  9994
2 43647  54.0873 299.8977 0007178  41.0553 318.9957  1.86232287 52205
BEIDOU-3 M15            
1 43648U 18078B   26170.83367920 -.00000087  00000+0  00000+0 0  9997
2 43648  54.0830 299.8936 0004077  57.9752 302.0615  1.86232385 52222
BEIDOU-3 G1             
1 43683U 18085A   26171.20980074 -.00000115  00000+0  00000+0 0  9999
2 43683   2.8770  97.2840 0008081 350.2271  56.3821  1.00270321 28097
COSMOS 2529 [GLONASS-M] 
1 43687U 18086A   26169.11967451  .00000057  00000+0  00000+0 0  9999
2 43687  64.2948 192.5630 0012066 256.5324 103.3830  2.13101950 59308
BEIDOU-3 M17            
1 43706U 18093A   26171.14381582  .00000066  00000+0  00000+0 0  9990
2 43706  54.1691 182.1955 0010190 292.3118 167.2714  1.86228386 51598
BEIDOU-3 M18            
1 43707U 18093B   26170.32164601  .00000059  00000+0  00000+0 0  9993
2 43707  54.1697 182.2155 0008016 320.7909  39.1732  1.86226376 51578
NAVSTAR 77 (USA 289)    
1 43873U 18109A   26170.26673370 -.00000015  00000+0  00000+0 0  9999
2 43873  55.6835  92.1043 0038201 197.8854 347.3976  2.00561682 55115
BEIDOU-3 IGSO-1         
1 44204U 19023A   26171.02267037 -.00000228  00000+0  00000+0 0  9994
2 44204  58.6991  37.6192 0025589 225.6061 131.3285  1.00290789  7234
